{
  "type": "FeatureCollection",
  "features": [
    {
      "type": "Feature",
      "properties": {
        "norad_id": 66517,
        "name": "STARLINK-35937",
        "group": "last-30-days",
        "lat": -35.84569178025574,
        "lon": -69.60867819423935,
        "alt_km": 417.2907627548757,
        "timestamp": "2025-12-11T18:59:44.809990+00:00",
        "meta_object_name": "STARLINK-35937",
        "meta_object_id": "2025-265B",
        "meta_epoch": "2025-12-11T06:00:02.999808",
        "meta_mean_motion": 15.50605251,
        "meta_eccentricity": 0.00014862,
        "meta_inclination": 42.9999,
        "meta_ra_of_asc_node": 62.7292,
        "meta_arg_of_pericenter": 260.2673,
        "meta_mean_anomaly": 192.841,
        "meta_ephemeris_type": 0,
        "meta_classification_type": "U",
        "meta_norad_cat_id": 66517,
        "meta_element_set_no": 999,
        "meta_rev_at_epoch": 475,
        "meta_bstar": -0.0011669728,
        "meta_mean_motion_dot": -0.00068272,
        "meta_mean_motion_ddot": 0,
        "tle_line1": "1 66517U 25265B   25345.25003472 -.00068272  00000+0 -11670-2 0  9990",
        "tle_line2": "2 66517  42.9999  62.7292 0001486 260.2673 192.8410 15.50605251  4753"
      },
      "geometry": {
        "type": "Point",
        "coordinates": [
          -69.60867819423935,
          -35.84569178025574
        ]
      }
    },
    {
      "type": "Feature",
      "properties": {
        "norad_id": 66518,
        "name": "STARLINK-35962",
        "group": "last-30-days",
        "lat": -36.64983017277919,
        "lon": -67.46255038959721,
        "alt_km": 417.5000996810513,
        "timestamp": "2025-12-11T18:59:44.810000+00:00",
        "meta_object_name": "STARLINK-35962",
        "meta_object_id": "2025-265C",
        "meta_epoch": "2025-12-11T06:00:02.999808",
        "meta_mean_motion": 15.50628496,
        "meta_eccentricity": 0.00013731,
        "meta_inclination": 42.9998,
        "meta_ra_of_asc_node": 62.7243,
        "meta_arg_of_pericenter": 270.2492,
        "meta_mean_anomaly": 184.7652,
        "meta_ephemeris_type": 0,
        "meta_classification_type": "U",
        "meta_norad_cat_id": 66518,
        "meta_element_set_no": 999,
        "meta_rev_at_epoch": 475,
        "meta_bstar": -0.0017388789,
        "meta_mean_motion_dot": -0.00101223,
        "meta_mean_motion_ddot": 0,
        "tle_line1": "1 66518U 25265C   25345.25003472 -.00101223  00000+0 -17389-2 0  9998",
        "tle_line2": "2 66518  42.9998  62.7243 0001373 270.2492 184.7652 15.50628496  4758"
      },
      "geometry": {
        "type": "Point",
        "coordinates": [
          -67.46255038959721,
          -36.64983017277919
        ]
      }
    },
    {
      "type": "Feature",
      "properties": {
        "norad_id": 66519,
        "name": "STARLINK-35931",
        "group": "last-30-days",
        "lat": -37.418202174556036,
        "lon": -65.26241555051087,
        "alt_km": 417.29864330257533,
        "timestamp": "2025-12-11T18:59:44.810011+00:00",
        "meta_object_name": "STARLINK-35931",
        "meta_object_id": "2025-265D",
        "meta_epoch": "2025-12-11T06:00:02.999808",
        "meta_mean_motion": 15.50634526,
        "meta_eccentricity": 0.00016978,
        "meta_inclination": 43.0001,
        "meta_ra_of_asc_node": 62.7192,
        "meta_arg_of_pericenter": 266.8762,
        "meta_mean_anomaly": 190.0564,
        "meta_ephemeris_type": 0,
        "meta_classification_type": "U",
        "meta_norad_cat_id": 66519,
        "meta_element_set_no": 999,
        "meta_rev_at_epoch": 475,
        "meta_bstar": -0.0018372823,
        "meta_mean_motion_dot": -0.00106881,
        "meta_mean_motion_ddot": 0,
        "tle_line1": "1 66519U 25265D   25345.25003472 -.00106881  00000+0 -18373-2 0  9998",
        "tle_line2": "2 66519  43.0001  62.7192 0001697 266.8762 190.0564 15.50634526  4752"
      },
      "geometry": {
        "type": "Point",
        "coordinates": [
          -65.26241555051087,
          -37.418202174556036
        ]
      }
    },
    {
      "type": "Feature",
      "properties": {
        "norad_id": 66520,
        "name": "STARLINK-35952",
        "group": "last-30-days",
        "lat": -38.14979259272938,
        "lon": -63.00097537762189,
        "alt_km": 417.4145059380844,
        "timestamp": "2025-12-11T18:59:44.810021+00:00",
        "meta_object_name": "STARLINK-35952",
        "meta_object_id": "2025-265E",
        "meta_epoch": "2025-12-11T06:00:02.999808",
        "meta_mean_motion": 15.50576575,
        "meta_eccentricity": 0.00012307,
        "meta_inclination": 43.0001,
        "meta_ra_of_asc_node": 62.7139,
        "meta_arg_of_pericenter": 265.2608,
        "meta_mean_anomaly": 193.598,
        "meta_ephemeris_type": 0,
        "meta_classification_type": "U",
        "meta_norad_cat_id": 66520,
        "meta_element_set_no": 999,
        "meta_rev_at_epoch": 475,
        "meta_bstar": 0.00012211729,
        "meta_mean_motion_dot": 6.828e-05,
        "meta_mean_motion_ddot": 0,
        "tle_line1": "1 66520U 25265E   25345.25003472  .00006828  00000+0  12212-3 0  9995",
        "tle_line2": "2 66520  43.0001  62.7139 0001230 265.2608 193.5980 15.50576575  4759"
      },
      "geometry": {
        "type": "Point",
        "coordinates": [
          -63.00097537762189,
          -38.14979259272938
        ]
      }
    },
    {
      "type": "Feature",
      "properties": {
        "norad_id": 66521,
        "name": "STARLINK-35915",
        "group": "last-30-days",
        "lat": -38.822092862735985,
        "lon": -60.74610479021098,
        "alt_km": 417.50914652545634,
        "timestamp": "2025-12-11T18:59:44.810032+00:00",
        "meta_object_name": "STARLINK-35915",
        "meta_object_id": "2025-265F",
        "meta_epoch": "2025-12-11T06:00:02.999808",
        "meta_mean_motion": 15.50639263,
        "meta_eccentricity": 0.00013881,
        "meta_inclination": 43,
        "meta_ra_of_asc_node": 62.7093,
        "meta_arg_of_pericenter": 262.2732,
        "meta_mean_anomaly": 198.4881,
        "meta_ephemeris_type": 0,
        "meta_classification_type": "U",
        "meta_norad_cat_id": 66521,
        "meta_element_set_no": 999,
        "meta_rev_at_epoch": 475,
        "meta_bstar": -0.0019868831,
        "meta_mean_motion_dot": -0.00115447,
        "meta_mean_motion_ddot": 0,
        "tle_line1": "1 66521U 25265F   25345.25003472 -.00115447  00000+0 -19869-2 0  9990",
        "tle_line2": "2 66521  43.0000  62.7093 0001388 262.2732 198.4881 15.50639263  4755"
      },
      "geometry": {
        "type": "Point",
        "coordinates": [
          -60.74610479021098,
          -38.822092862735985
        ]
      }
    },
    {
      "type": "Feature",
      "properties": {
        "norad_id": 66522,
        "name": "STARLINK-35946",
        "group": "last-30-days",
        "lat": -39.45778182606411,
        "lon": -58.420277371927796,
        "alt_km": 417.452440127282,
        "timestamp": "2025-12-11T18:59:44.810042+00:00",
        "meta_object_name": "STARLINK-35946",
        "meta_object_id": "2025-265G",
        "meta_epoch": "2025-12-11T06:00:02.999808",
        "meta_mean_motion": 15.50621742,
        "meta_eccentricity": 0.00014854,
        "meta_inclination": 42.9999,
        "meta_ra_of_asc_node": 62.7044,
        "meta_arg_of_pericenter": 264.9401,
        "meta_mean_anomaly": 197.7472,
        "meta_ephemeris_type": 0,
        "meta_classification_type": "U",
        "meta_norad_cat_id": 66522,
        "meta_element_set_no": 999,
        "meta_rev_at_epoch": 475,
        "meta_bstar": -0.0015394094,
        "meta_mean_motion_dot": -0.0008976,
        "meta_mean_motion_ddot": 0,
        "tle_line1": "1 66522U 25265G   25345.25003472 -.00089760  00000+0 -15394-2 0  9998",
        "tle_line2": "2 66522  42.9999  62.7044 0001485 264.9401 197.7472 15.50621742  4758"
      },
      "geometry": {
        "type": "Point",
        "coordinates": [
          -58.420277371927796,
          -39.45778182606411
        ]
      }
    },
    {
      "type": "Feature",
      "properties": {
        "norad_id": 66523,
        "name": "STARLINK-35969",
        "group": "last-30-days",
        "lat": -40.04819225506296,
        "lon": -56.045147364733396,
        "alt_km": 416.27300626137,
        "timestamp": "2025-12-11T18:59:44.810054+00:00",
        "meta_object_name": "STARLINK-35969",
        "meta_object_id": "2025-265H",
        "meta_epoch": "2025-12-11T06:00:02.999808",
        "meta_mean_motion": 15.5062012,
        "meta_eccentricity": 0.00040614,
        "meta_inclination": 43.0003,
        "meta_ra_of_asc_node": 62.7007,
        "meta_arg_of_pericenter": 284.5093,
        "meta_mean_anomaly": 180.1387,
        "meta_ephemeris_type": 0,
        "meta_classification_type": "U",
        "meta_norad_cat_id": 66523,
        "meta_element_set_no": 999,
        "meta_rev_at_epoch": 475,
        "meta_bstar": -0.0017042646,
        "meta_mean_motion_dot": -0.0009925,
        "meta_mean_motion_ddot": 0,
        "tle_line1": "1 66523U 25265H   25345.25003472 -.00099250  00000+0 -17043-2 0  9997",
        "tle_line2": "2 66523  43.0003  62.7007 0004061 284.5093 180.1387 15.50620120  4754"
      },
      "geometry": {
        "type": "Point",
        "coordinates": [
          -56.045147364733396,
          -40.04819225506296
        ]
      }
    }
  ]
}